<?xml version="1.0" encoding="UTF-8"?>
<ndm xmlns:xsi="http://www.w3.org/2001/XMLSchema-instance" xsi:noNamespaceSchemaLocation="https://sanaregistry.org/r/ndmxml_unqualified/ndmxml-2.0.0-master-2.0.xsd">
<omm id="CCSDS_OMM_VERS" version="2.0">
<header><CREATION_DATE/><ORIGINATOR/></header><body><segment><metadata><OBJECT_NAME>STARLINK-4302</OBJECT_NAME><OBJECT_ID>2022-099S</OBJECT_ID><CENTER_NAME>EARTH</CENTER_NAME><REF_FRAME>TEME</REF_FRAME><TIME_SYSTEM>UTC</TIME_SYSTEM><MEAN_ELEMENT_THEORY>SGP4</MEAN_ELEMENT_THEORY></metadata><data><meanElements><EPOCH>2022-08-29T16:00:00.999936</EPOCH><MEAN_MOTION>15.65630885</MEAN_MOTION><ECCENTRICITY>.0001934</ECCENTRICITY><INCLINATION>97.6557</INCLINATION><RA_OF_ASC_NODE>0.4681</RA_OF_ASC_NODE><ARG_OF_PERICENTER>51.7184</ARG_OF_PERICENTER><MEAN_ANOMALY>22.5864</MEAN_ANOMALY></meanElements><tleParameters><EPHEMERIS_TYPE>0</EPHEMERIS_TYPE><CLASSIFICATION_TYPE>U</CLASSIFICATION_TYPE><NORAD_CAT_ID>53481</NORAD_CAT_ID><ELEMENT_SET_NO>999</ELEMENT_SET_NO><REV_AT_EPOCH>288</REV_AT_EPOCH><BSTAR>-.13358E-1</BSTAR><MEAN_MOTION_DOT>-.1207475E-1</MEAN_MOTION_DOT><MEAN_MOTION_DDOT>0</MEAN_MOTION_DDOT></tleParameters></data></segment></body></omm>
<omm id="CCSDS_OMM_VERS" version="2.0">
<header><CREATION_DATE/><ORIGINATOR/></header><body><segment><metadata><OBJECT_NAME>STARLINK-4360</OBJECT_NAME><OBJECT_ID>2022-099T</OBJECT_ID><CENTER_NAME>EARTH</CENTER_NAME><REF_FRAME>TEME</REF_FRAME><TIME_SYSTEM>UTC</TIME_SYSTEM><MEAN_ELEMENT_THEORY>SGP4</MEAN_ELEMENT_THEORY></metadata><data><meanElements><EPOCH>2022-08-29T16:00:00.999936</EPOCH><MEAN_MOTION>15.65622814</MEAN_MOTION><ECCENTRICITY>.0001997</ECCENTRICITY><INCLINATION>97.6557</INCLINATION><RA_OF_ASC_NODE>0.4677</RA_OF_ASC_NODE><ARG_OF_PERICENTER>47.9263</ARG_OF_PERICENTER><MEAN_ANOMALY>25.7372</MEAN_ANOMALY></meanElements><tleParameters><EPHEMERIS_TYPE>0</EPHEMERIS_TYPE><CLASSIFICATION_TYPE>U</CLASSIFICATION_TYPE><NORAD_CAT_ID>53482</NORAD_CAT_ID><ELEMENT_SET_NO>999</ELEMENT_SET_NO><REV_AT_EPOCH>288</REV_AT_EPOCH><BSTAR>-.13349E-1</BSTAR><MEAN_MOTION_DOT>-.1206416E-1</MEAN_MOTION_DOT><MEAN_MOTION_DDOT>0</MEAN_MOTION_DDOT></tleParameters></data></segment></body></omm>
<omm id="CCSDS_OMM_VERS" version="2.0">
<header><CREATION_DATE/><ORIGINATOR/></header><body><segment><metadata><OBJECT_NAME>STARLINK-4401</OBJECT_NAME><OBJECT_ID>2022-099U</OBJECT_ID><CENTER_NAME>EARTH</CENTER_NAME><REF_FRAME>TEME</REF_FRAME><TIME_SYSTEM>UTC</TIME_SYSTEM><MEAN_ELEMENT_THEORY>SGP4</MEAN_ELEMENT_THEORY></metadata><data><meanElements><EPOCH>2022-08-29T16:00:00.999936</EPOCH><MEAN_MOTION>15.65652142</MEAN_MOTION><ECCENTRICITY>.0001836</ECCENTRICITY><INCLINATION>97.6557</INCLINATION><RA_OF_ASC_NODE>0.4680</RA_OF_ASC_NODE><ARG_OF_PERICENTER>58.3572</ARG_OF_PERICENTER><MEAN_ANOMALY>17.8729</MEAN_ANOMALY></meanElements><tleParameters><EPHEMERIS_TYPE>0</EPHEMERIS_TYPE><CLASSIFICATION_TYPE>U</CLASSIFICATION_TYPE><NORAD_CAT_ID>53483</NORAD_CAT_ID><ELEMENT_SET_NO>999</ELEMENT_SET_NO><REV_AT_EPOCH>288</REV_AT_EPOCH><BSTAR>-.13343E-1</BSTAR><MEAN_MOTION_DOT>-.1207138E-1</MEAN_MOTION_DOT><MEAN_MOTION_DDOT>0</MEAN_MOTION_DDOT></tleParameters></data></segment></body></omm>
<omm id="CCSDS_OMM_VERS" version="2.0">
<header><CREATION_DATE/><ORIGINATOR/></header><body><segment><metadata><OBJECT_NAME>STARLINK-4426</OBJECT_NAME><OBJECT_ID>2022-099V</OBJECT_ID><CENTER_NAME>EARTH</CENTER_NAME><REF_FRAME>TEME</REF_FRAME><TIME_SYSTEM>UTC</TIME_SYSTEM><MEAN_ELEMENT_THEORY>SGP4</MEAN_ELEMENT_THEORY></metadata><data><meanElements><EPOCH>2022-08-29T16:00:00.999936</EPOCH><MEAN_MOTION>15.65637942</MEAN_MOTION><ECCENTRICITY>.0001608</ECCENTRICITY><INCLINATION>97.6556</INCLINATION><RA_OF_ASC_NODE>0.4678</RA_OF_ASC_NODE><ARG_OF_PERICENTER>95.0992</ARG_OF_PERICENTER><MEAN_ANOMALY>339.8472</MEAN_ANOMALY></meanElements><tleParameters><EPHEMERIS_TYPE>0</EPHEMERIS_TYPE><CLASSIFICATION_TYPE>U</CLASSIFICATION_TYPE><NORAD_CAT_ID>53484</NORAD_CAT_ID><ELEMENT_SET_NO>999</ELEMENT_SET_NO><REV_AT_EPOCH>288</REV_AT_EPOCH><BSTAR>-.13347E-1</BSTAR><MEAN_MOTION_DOT>-.1206749E-1</MEAN_MOTION_DOT><MEAN_MOTION_DDOT>0</MEAN_MOTION_DDOT></tleParameters></data></segment></body></omm>
<omm id="CCSDS_OMM_VERS" version="2.0">
<header><CREATION_DATE/><ORIGINATOR/></header><body><segment><metadata><OBJECT_NAME>STARLINK-4430</OBJECT_NAME><OBJECT_ID>2022-099W</OBJECT_ID><CENTER_NAME>EARTH</CENTER_NAME><REF_FRAME>TEME</REF_FRAME><TIME_SYSTEM>UTC</TIME_SYSTEM><MEAN_ELEMENT_THEORY>SGP4</MEAN_ELEMENT_THEORY></metadata><data><meanElements><EPOCH>2022-08-29T16:00:00.999936</EPOCH><MEAN_MOTION>15.65666011</MEAN_MOTION><ECCENTRICITY>.0001985</ECCENTRICITY><INCLINATION>97.6557</INCLINATION><RA_OF_ASC_NODE>0.4682</RA_OF_ASC_NODE><ARG_OF_PERICENTER>48.6970</ARG_OF_PERICENTER><MEAN_ANOMALY>28.8165</MEAN_ANOMALY></meanElements><tleParameters><EPHEMERIS_TYPE>0</EPHEMERIS_TYPE><CLASSIFICATION_TYPE>U</CLASSIFICATION_TYPE><NORAD_CAT_ID>53485</NORAD_CAT_ID><ELEMENT_SET_NO>999</ELEMENT_SET_NO><REV_AT_EPOCH>288</REV_AT_EPOCH><BSTAR>-.13329E-1</BSTAR><MEAN_MOTION_DOT>-.1206665E-1</MEAN_MOTION_DOT><MEAN_MOTION_DDOT>0</MEAN_MOTION_DDOT></tleParameters></data></segment></body></omm>
<omm id="CCSDS_OMM_VERS" version="2.0">
<header><CREATION_DATE/><ORIGINATOR/></header><body><segment><metadata><OBJECT_NAME>STARLINK-4431</OBJECT_NAME><OBJECT_ID>2022-099X</OBJECT_ID><CENTER_NAME>EARTH</CENTER_NAME><REF_FRAME>TEME</REF_FRAME><TIME_SYSTEM>UTC</TIME_SYSTEM><MEAN_ELEMENT_THEORY>SGP4</MEAN_ELEMENT_THEORY></metadata><data><meanElements><EPOCH>2022-08-29T16:00:00.999936</EPOCH><MEAN_MOTION>15.65644808</MEAN_MOTION><ECCENTRICITY>.00018</ECCENTRICITY><INCLINATION>97.6557</INCLINATION><RA_OF_ASC_NODE>0.4680</RA_OF_ASC_NODE><ARG_OF_PERICENTER>60.7579</ARG_OF_PERICENTER><MEAN_ANOMALY>14.8306</MEAN_ANOMALY></meanElements><tleParameters><EPHEMERIS_TYPE>0</EPHEMERIS_TYPE><CLASSIFICATION_TYPE>U</CLASSIFICATION_TYPE><NORAD_CAT_ID>53486</NORAD_CAT_ID><ELEMENT_SET_NO>999</ELEMENT_SET_NO><REV_AT_EPOCH>288</REV_AT_EPOCH><BSTAR>-.13344E-1</BSTAR><MEAN_MOTION_DOT>-.1206884E-1</MEAN_MOTION_DOT><MEAN_MOTION_DDOT>0</MEAN_MOTION_DDOT></tleParameters></data></segment></body></omm>
<omm id="CCSDS_OMM_VERS" version="2.0">
<header><CREATION_DATE/><ORIGINATOR/></header><body><segment><metadata><OBJECT_NAME>STARLINK-4432</OBJECT_NAME><OBJECT_ID>2022-099Y</OBJECT_ID><CENTER_NAME>EARTH</CENTER_NAME><REF_FRAME>TEME</REF_FRAME><TIME_SYSTEM>UTC</TIME_SYSTEM><MEAN_ELEMENT_THEORY>SGP4</MEAN_ELEMENT_THEORY></metadata><data><meanElements><EPOCH>2022-08-29T16:00:00.999936</EPOCH><MEAN_MOTION>15.65692200</MEAN_MOTION><ECCENTRICITY>.0001891</ECCENTRICITY><INCLINATION>97.6557</INCLINATION><RA_OF_ASC_NODE>0.4689</RA_OF_ASC_NODE><ARG_OF_PERICENTER>52.4872</ARG_OF_PERICENTER><MEAN_ANOMALY>26.3026</MEAN_ANOMALY></meanElements><tleParameters><EPHEMERIS_TYPE>0</EPHEMERIS_TYPE><CLASSIFICATION_TYPE>U</CLASSIFICATION_TYPE><NORAD_CAT_ID>53487</NORAD_CAT_ID><ELEMENT_SET_NO>999</ELEMENT_SET_NO><REV_AT_EPOCH>288</REV_AT_EPOCH><BSTAR>-.13497E-1</BSTAR><MEAN_MOTION_DOT>-.1221488E-1</MEAN_MOTION_DOT><MEAN_MOTION_DDOT>0</MEAN_MOTION_DDOT></tleParameters></data></segment></body></omm>
<omm id="CCSDS_OMM_VERS" version="2.0">
<header><CREATION_DATE/><ORIGINATOR/></header><body><segment><metadata><OBJECT_NAME>STARLINK-4421</OBJECT_NAME><OBJECT_ID>2022-099Z</OBJECT_ID><CENTER_NAME>EARTH</CENTER_NAME><REF_FRAME>TEME</REF_FRAME><TIME_SYSTEM>UTC</TIME_SYSTEM><MEAN_ELEMENT_THEORY>SGP4</MEAN_ELEMENT_THEORY></metadata><data><meanElements><EPOCH>2022-08-29T16:00:00.999936</EPOCH><MEAN_MOTION>15.65668700</MEAN_MOTION><ECCENTRICITY>.0001791</ECCENTRICITY><INCLINATION>97.6558</INCLINATION><RA_OF_ASC_NODE>0.4688</RA_OF_ASC_NODE><ARG_OF_PERICENTER>58.7312</ARG_OF_PERICENTER><MEAN_ANOMALY>18.1351</MEAN_ANOMALY></meanElements><tleParameters><EPHEMERIS_TYPE>0</EPHEMERIS_TYPE><CLASSIFICATION_TYPE>U</CLASSIFICATION_TYPE><NORAD_CAT_ID>53488</NORAD_CAT_ID><ELEMENT_SET_NO>999</ELEMENT_SET_NO><REV_AT_EPOCH>288</REV_AT_EPOCH><BSTAR>-.13474E-1</BSTAR><MEAN_MOTION_DOT>-.1218532E-1</MEAN_MOTION_DOT><MEAN_MOTION_DDOT>0</MEAN_MOTION_DDOT></tleParameters></data></segment></body></omm>

</ndm>
